OBJECT_NAME,OBJECT_ID,EPOCH,MEAN_MOTION,ECCENTRICITY,INCLINATION,RA_OF_ASC_NODE,ARG_OF_PERICENTER,MEAN_ANOMALY,EPHEMERIS_TYPE,CLASSIFICATION_TYPE,NORAD_CAT_ID,ELEMENT_SET_NO,REV_AT_EPOCH,BSTAR,MEAN_MOTION_DOT,MEAN_MOTION_DDOT
YAOGAN-20 01C,2014-047C,2026-07-01T22:05:44.712960,13.45451059,.03911772,63.3792,341.7146,15.1909,346.0477,0,U,40111,999,58427,.22370178E-4,-.7E-6,0
WORLDVIEW-3 (WV-3),2014-048A,2026-07-01T22:09:54.501408,14.85046237,.00002279,97.8563,257.5529,167.2900,192.8321,0,U,40115,999,64409,.11839095E-3,.957E-5,0
GAOFEN-2,2014-049A,2026-07-01T23:21:58.989888,14.80912385,.00071991,98.0107,247.1663,174.3740,185.7555,0,U,40118,999,64142,.2062356E-5,-.38E-6,0
BRITE-PL2 (HEWELIUSZ),2014-049B,2026-07-01T21:37:17.959584,14.94646982,.00151131,97.9112,295.0154,63.6454,296.6316,0,U,40119,999,64364,.1671651E-3,.1755E-4,0
GSAT0201 (GALILEO 5),2014-050A,2026-06-29T06:35:26.939040,1.85520280,.16762517,48.8619,272.9404,179.8513,180.2703,0,U,40128,999,7854,0,-.39E-6,0
GSAT0202 (GALILEO 6),2014-050B,2026-06-30T14:35:38.438592,1.85520713,.16776984,48.8773,271.9714,180.6428,179.1780,0,U,40129,999,8073,0,-.31E-6,0
LING QIAO,2014-051A,2026-07-01T23:00:03.002112,14.30272790,.00217088,98.7052,184.7640,127.7988,232.5164,0,U,40136,999,61711,-.6516181E-5,-.62E-6,0
CHUANGXIN 1-04 (CX-1-04),2014-051B,2026-07-01T23:44:58.957728,14.30412813,.00231839,98.7050,184.8425,128.7678,231.5580,0,U,40137,999,61666,-.46993742E-4,-.167E-5,0
ASIASAT 6,2014-052A,2026-07-01T01:03:38.650176,1.00273234,.0000956,0.0366,269.1164,215.6310,290.1820,0,U,40141,999,4321,0,-.351E-5,0
YAOGAN-21,2014-053A,2026-07-01T23:27:37.946592,15.26592329,.0009161,97.1463,222.5789,50.7923,309.4129,0,U,40143,999,65721,.32004566E-3,.8319E-4,0
OPTUS 10,2014-054A,2026-06-30T16:31:41.864736,1.00270771,.00021462,0.0918,325.1081,134.5899,222.9887,0,U,40146,999,4316,0,-.137E-5,0
MEASAT-3B,2014-054B,2026-06-29T20:33:21.427200,1.00276975,.00021141,0.0235,358.3647,78.6407,240.7636,0,U,40147,999,4303,0,-.232E-5,0
SJ-11-07,2014-059A,2026-07-01T22:23:53.715840,14.63752358,.00120829,97.9941,251.7877,102.1284,258.1273,0,U,40261,999,62707,.59348814E-4,.263E-5,0
HIMAWARI-8,2014-060A,2026-07-01T21:32:28.838400,1.00272310,.00010893,0.0150,24.1825,79.9799,279.5802,0,U,40267,999,4290,0,-.265E-5,0
IRNSS-1C,2014-061A,2026-07-01T21:00:16.176672,1.00274440,.00220922,6.5541,88.6513,4.0601,225.2373,0,U,40269,999,4283,0,-.156E-5,0
INTELSAT 30 (IS-30),2014-062A,2026-07-01T22:07:54.287040,1.00271148,.00014465,0.0221,50.7172,350.5565,115.6136,0,U,40271,999,694,0,-.14E-5,0
ARSAT 1,2014-062B,2026-07-01T20:31:51.484800,1.00270510,.00020787,0.0114,2.9364,94.1632,58.9613,0,U,40272,999,4277,0,-.249E-5,0
YAOGAN-22,2014-063A,2026-07-01T22:33:00.741024,13.15531245,.00066564,100.7744,334.4589,153.1561,206.9896,0,U,40275,999,56175,-.30047271E-4,-.58E-6,0
EUTELSAT 53A,2014-064A,2026-07-01T05:43:37.042752,1.00271894,.0001288,0.0161,304.0538,241.6748,232.4716,0,U,40277,999,4170,0,.108E-5,0
SJ-11-08,2014-066A,2026-07-01T22:15:24.390432,14.66189921,.00118593,98.3538,328.0341,179.5621,180.5594,0,U,40286,999,62337,.15871784E-3,.823E-5,0
NAVSTAR 72 (USA 258),2014-068A,2026-06-30T21:11:23.477568,2.00577197,.00673114,56.9970,30.4273,71.0884,289.7026,0,U,40294,999,8548,0,-.62E-6,0
MERIDIAN 7,2014-069A,2026-07-01T03:26:05.693280,2.00595649,.66430541,63.4502,213.9699,270.4721,19.8010,0,U,40296,999,8551,0,.294E-5,0
ASNARO,2014-070A,2026-07-01T21:50:30.828192,15.19650601,.00066466,97.3452,258.6271,122.9082,237.2794,0,U,40298,999,64624,.38007568E-3,.8044E-4,0
YAOGAN-24,2014-072A,2026-07-01T22:14:31.923168,14.76101904,.00135646,98.1508,320.3893,213.2418,146.7940,0,U,40310,999,62589,.56339028E-4,.336E-5,0
COSMOS 2501 [GLONASS-K],2014-075A,2026-06-30T10:33:31.413888,2.13101453,.00226357,63.6170,189.9132,212.5837,147.3119,0,U,40315,999,9013,0,.79E-6,0
GSAT-16,2014-078A,2026-07-01T21:08:04.702272,1.00272145,.00078998,0.0494,262.9706,184.7535,204.3171,0,U,40332,999,4225,0,.95E-6,0
DIRECTV 14,2014-078B,2026-07-01T11:50:47.291424,1.00273352,.00003885,0.0108,16.3305,24.0591,317.6198,0,U,40333,999,4218,0,-.115E-5,0
CBERS 4,2014-079A,2026-07-01T22:52:54.523776,14.35512720,.00013435,98.3527,239.3213,52.4938,307.6370,0,U,40336,999,60607,.19360781E-4,.13E-6,0
YAOGAN-25 01A,2014-080A,2026-07-01T20:22:58.033920,13.45413169,.03678961,63.3886,273.0052,9.2167,351.5373,0,U,40338,999,56763,.22081206E-4,-.71E-6,0
YAOGAN-25 01B,2014-080B,2026-07-01T23:39:29.795328,13.45434623,.03681838,63.3893,272.7781,9.0108,351.7291,0,U,40339,999,56762,.67962189E-4,-.3E-6,0
YAOGAN-25 01C,2014-080C,2026-07-01T22:16:57.036288,13.45349035,.03681238,63.3877,273.3145,9.6879,351.0998,0,U,40340,999,56773,-.17109367E-4,-.106E-5,0
