YAOGAN-20 01C           
1 40111U 14047C   26182.92065640 -.00000070  00000+0  22370-4 0  9999
2 40111  63.3792 341.7146 0391177  15.1909 346.0477 13.45451059584272
WORLDVIEW-3 (WV-3)      
1 40115U 14048A   26182.92354747  .00000957  00000+0  11839-3 0  9993
2 40115  97.8563 257.5529 0000227 167.2900 192.8321 14.85046237644091
GAOFEN-2                
1 40118U 14049A   26182.97359942 -.00000038  00000+0  20624-5 0  9999
2 40118  98.0107 247.1663 0007199 174.3740 185.7555 14.80912385641426
BRITE-PL2 (HEWELIUSZ)   
1 40119U 14049B   26182.90090231  .00001755  00000+0  16717-3 0  9998
2 40119  97.9112 295.0154 0015113  63.6454 296.6316 14.94646982643640
GSAT0201 (GALILEO 5)    
1 40128U 14050A   26180.27461735 -.00000039  00000+0  00000+0 0  9998
2 40128  48.8619 272.9404 1676251 179.8513 180.2703  1.85520280 78549
GSAT0202 (GALILEO 6)    
1 40129U 14050B   26181.60808378 -.00000031  00000+0  00000+0 0  9997
2 40129  48.8773 271.9714 1677698 180.6428 179.1780  1.85520713 80732
LING QIAO               
1 40136U 14051A   26182.95836808 -.00000062  00000+0 -65162-5 0  9995
2 40136  98.7052 184.7640 0021708 127.7988 232.5164 14.30272790617111
CHUANGXIN 1-04 (CX-1-04)
1 40137U 14051B   26182.98957127 -.00000167  00000+0 -46994-4 0  9994
2 40137  98.7050 184.8425 0023183 128.7678 231.5580 14.30412813616660
ASIASAT 6               
1 40141U 14052A   26182.04419734 -.00000351  00000+0  00000+0 0  9991
2 40141   0.0366 269.1164 0000956 215.6310 290.1820  1.00273234 43218
YAOGAN-21               
1 40143U 14053A   26182.97752253  .00008319  00000+0  32005-3 0  9997
2 40143  97.1463 222.5789 0009161  50.7923 309.4129 15.26592329657215
OPTUS 10                
1 40146U 14054A   26181.68867899 -.00000137  00000+0  00000+0 0  9998
2 40146   0.0918 325.1081 0002146 134.5899 222.9887  1.00270771 43164
MEASAT-3B               
1 40147U 14054B   26180.85649800 -.00000232  00000+0  00000+0 0  9993
2 40147   0.0235 358.3647 0002114  78.6407 240.7636  1.00276975 43039
SJ-11-07                
1 40261U 14059A   26182.93326060  .00000263  00000+0  59349-4 0  9994
2 40261  97.9941 251.7877 0012082 102.1284 258.1273 14.63752358627076
HIMAWARI-8              
1 40267U 14060A   26182.89755600 -.00000265  00000+0  00000+0 0  9991
2 40267   0.0150  24.1825 0001089  79.9799 279.5802  1.00272310 42901
IRNSS-1C                
1 40269U 14061A   26182.87518723 -.00000156  00000+0  00000+0 0  9994
2 40269   6.5541  88.6513 0022092   4.0601 225.2373  1.00274440 42834
INTELSAT 30 (IS-30)     
1 40271U 14062A   26182.92215610 -.00000140  00000+0  00000+0 0  9996
2 40271   0.0221  50.7172 0001446 350.5565 115.6136  1.00271148  6943
ARSAT 1                 
1 40272U 14062B   26182.85545700 -.00000249  00000+0  00000+0 0  9995
2 40272   0.0114   2.9364 0002078  94.1632  58.9613  1.00270510 42777
YAOGAN-22               
1 40275U 14063A   26182.93959191 -.00000058  00000+0 -30047-4 0  9999
2 40275 100.7744 334.4589 0006656 153.1561 206.9896 13.15531245561758
EUTELSAT 53A            
1 40277U 14064A   26182.23862318  .00000108  00000+0  00000+0 0  9994
2 40277   0.0161 304.0538 0001288 241.6748 232.4716  1.00271894 41703
SJ-11-08                
1 40286U 14066A   26182.92736563  .00000823  00000+0  15872-3 0  9995
2 40286  98.3538 328.0341 0011859 179.5621 180.5594 14.66189921623374
NAVSTAR 72 (USA 258)    
1 40294U 14068A   26181.88291062 -.00000062  00000+0  00000+0 0  9999
2 40294  56.9970  30.4273 0067311  71.0884 289.7026  2.00577197 85489
MERIDIAN 7              
1 40296U 14069A   26182.14312145  .00000294  00000+0  00000+0 0  9994
2 40296  63.4502 213.9699 6643054 270.4721  19.8010  2.00595649 85511
ASNARO                  
1 40298U 14070A   26182.91007903  .00008044  00000+0  38008-3 0  9990
2 40298  97.3452 258.6271 0006646 122.9082 237.2794 15.19650601646242
YAOGAN-24               
1 40310U 14072A   26182.92675837  .00000336  00000+0  56339-4 0  9999
2 40310  98.1508 320.3893 0013564 213.2418 146.7940 14.76101904625893
COSMOS 2501 [GLONASS-K] 
1 40315U 14075A   26181.43994692  .00000079  00000+0  00000+0 0  9998
2 40315  63.6170 189.9132 0022635 212.5837 147.3119  2.13101453 90136
GSAT-16                 
1 40332U 14078A   26182.88060998  .00000095  00000+0  00000+0 0  9991
2 40332   0.0494 262.9706 0007899 184.7535 204.3171  1.00272145 42252
DIRECTV 14              
1 40333U 14078B   26182.49360291 -.00000115  00000+0  00000+0 0  9992
2 40333   0.0108  16.3305 0000388  24.0591 317.6198  1.00273352 42185
CBERS 4                 
1 40336U 14079A   26182.95340884  .00000013  00000+0  19361-4 0  9994
2 40336  98.3527 239.3213 0001343  52.4938 307.6370 14.35512720606072
YAOGAN-25 01A           
1 40338U 14080A   26182.84928280 -.00000071  00000+0  22081-4 0  9996
2 40338  63.3886 273.0052 0367896   9.2167 351.5373 13.45413169567638
YAOGAN-25 01B           
1 40339U 14080B   26182.98576152 -.00000030  00000+0  67962-4 0  9991
2 40339  63.3893 272.7781 0368183   9.0108 351.7291 13.45434623567623
YAOGAN-25 01C           
1 40340U 14080C   26182.92843792 -.00000106  00000+0 -17109-4 0  9997
2 40340  63.3877 273.3145 0368123   9.6879 351.0998 13.45349035567734
